{
  "type": "FeatureCollection",
  "features": [
    {
      "type": "Feature",
      "properties": {
        "norad_id": 30172,
        "name": "FENGYUN 1C DEB",
        "group": "fengyun-1c-debris",
        "lat": 62.07586854452687,
        "lon": 176.10393810168497,
        "alt_km": 813.4913724784983,
        "timestamp": "2025-12-24T18:55:56.342807+00:00",
        "meta_object_name": "FENGYUN 1C DEB",
        "meta_object_id": "1999-025UD",
        "meta_epoch": "2025-12-23T12:20:22.941888",
        "meta_mean_motion": 14.12512999,
        "meta_eccentricity": 0.00688598,
        "meta_inclination": 99.236,
        "meta_ra_of_asc_node": 336.9122,
        "meta_arg_of_pericenter": 171.5216,
        "meta_mean_anomaly": 307.2014,
        "meta_ephemeris_type": 0,
        "meta_classification_type": "U",
        "meta_norad_cat_id": 30172,
        "meta_element_set_no": 999,
        "meta_rev_at_epoch": 96669,
        "meta_bstar": 0.0011381748,
        "meta_mean_motion_dot": 2.104e-05,
        "meta_mean_motion_ddot": 0,
        "tle_line1": "1 30172U 99025UD  25357.51415442  .00002104  00000+0  11382-2 0  9999",
        "tle_line2": "2 30172  99.2360 336.9122 0068859 171.5216 307.2014 14.12512999966695"
      },
      "geometry": {
        "type": "Point",
        "coordinates": [
          176.10393810168497,
          62.07586854452687
        ]
      }
    },
    {
      "type": "Feature",
      "properties": {
        "norad_id": 30173,
        "name": "FENGYUN 1C DEB",
        "group": "fengyun-1c-debris",
        "lat": 35.23734432642768,
        "lon": 63.13964730711172,
        "alt_km": 897.758951506682,
        "timestamp": "2025-12-24T18:55:56.342818+00:00",
        "meta_object_name": "FENGYUN 1C DEB",
        "meta_object_id": "1999-025UE",
        "meta_epoch": "2025-12-24T03:35:30.305184",
        "meta_mean_motion": 14.1144534,
        "meta_eccentricity": 0.00814393,
        "meta_inclination": 98.9748,
        "meta_ra_of_asc_node": 68.9102,
        "meta_arg_of_pericenter": 256.3474,
        "meta_mean_anomaly": 132.8377,
        "meta_ephemeris_type": 0,
        "meta_classification_type": "U",
        "meta_norad_cat_id": 30173,
        "meta_element_set_no": 999,
        "meta_rev_at_epoch": 96710,
        "meta_bstar": 0.0016072117,
        "meta_mean_motion_dot": 2.959e-05,
        "meta_mean_motion_ddot": 0,
        "tle_line1": "1 30173U 99025UE  25358.14965631  .00002959  00000+0  16072-2 0  9999",
        "tle_line2": "2 30173  98.9748  68.9102 0081439 256.3474 132.8377 14.11445340967104"
      },
      "geometry": {
        "type": "Point",
        "coordinates": [
          63.13964730711172,
          35.23734432642768
        ]
      }
    },
    {
      "type": "Feature",
      "properties": {
        "norad_id": 30174,
        "name": "FENGYUN 1C DEB",
        "group": "fengyun-1c-debris",
        "lat": -17.415958587796716,
        "lon": -34.01610227751198,
        "alt_km": 641.5018913209251,
        "timestamp": "2025-12-24T18:55:56.342828+00:00",
        "meta_object_name": "FENGYUN 1C DEB",
        "meta_object_id": "1999-025UF",
        "meta_epoch": "2025-12-24T04:15:01.237824",
        "meta_mean_motion": 14.81723125,
        "meta_eccentricity": 0.00186733,
        "meta_inclination": 98.7764,
        "meta_ra_of_asc_node": 148.0918,
        "meta_arg_of_pericenter": 7.451,
        "meta_mean_anomaly": 168.8072,
        "meta_ephemeris_type": 0,
        "meta_classification_type": "U",
        "meta_norad_cat_id": 30174,
        "meta_element_set_no": 999,
        "meta_rev_at_epoch": 98537,
        "meta_bstar": 0.0043258019,
        "meta_mean_motion_dot": 0.00034296,
        "meta_mean_motion_ddot": 0,
        "tle_line1": "1 30174U 99025UF  25358.17709766  .00034296  00000+0  43258-2 0  9993",
        "tle_line2": "2 30174  98.7764 148.0918 0018673   7.4510 168.8072 14.81723125985379"
      },
      "geometry": {
        "type": "Point",
        "coordinates": [
          -34.01610227751198,
          -17.415958587796716
        ]
      }
    },
    {
      "type": "Feature",
      "properties": {
        "norad_id": 30175,
        "name": "FENGYUN 1C DEB",
        "group": "fengyun-1c-debris",
        "lat": 7.860808859925831,
        "lon": 53.52770018253433,
        "alt_km": 1058.5394465072213,
        "timestamp": "2025-12-24T18:55:56.342838+00:00",
        "meta_object_name": "FENGYUN 1C DEB",
        "meta_object_id": "1999-025UG",
        "meta_epoch": "2025-12-24T03:37:02.875008",
        "meta_mean_motion": 13.8387788,
        "meta_eccentricity": 0.0146708,
        "meta_inclination": 99.3795,
        "meta_ra_of_asc_node": 54.1986,
        "meta_arg_of_pericenter": 182.3867,
        "meta_mean_anomaly": 248.5245,
        "meta_ephemeris_type": 0,
        "meta_classification_type": "U",
        "meta_norad_cat_id": 30175,
        "meta_element_set_no": 999,
        "meta_rev_at_epoch": 95498,
        "meta_bstar": 0.00038267712,
        "meta_mean_motion_dot": 4.17e-06,
        "meta_mean_motion_ddot": 0,
        "tle_line1": "1 30175U 99025UG  25358.15072772  .00000417  00000+0  38268-3 0  9996",
        "tle_line2": "2 30175  99.3795  54.1986 0146708 182.3867 248.5245 13.83877880954982"
      },
      "geometry": {
        "type": "Point",
        "coordinates": [
          53.52770018253433,
          7.860808859925831
        ]
      }
    },
    {
      "type": "Feature",
      "properties": {
        "norad_id": 30177,
        "name": "FENGYUN 1C DEB",
        "group": "fengyun-1c-debris",
        "lat": -25.86909402312093,
        "lon": -54.67524367565068,
        "alt_km": 1249.592926315504,
        "timestamp": "2025-12-24T18:55:56.342849+00:00",
        "meta_object_name": "FENGYUN 1C DEB",
        "meta_object_id": "1999-025UJ",
        "meta_epoch": "2025-12-23T10:09:28.586592",
        "meta_mean_motion": 13.62843543,
        "meta_eccentricity": 0.04520984,
        "meta_inclination": 98.6276,
        "meta_ra_of_asc_node": 299.8883,
        "meta_arg_of_pericenter": 110.2324,
        "meta_mean_anomaly": 11.2152,
        "meta_ephemeris_type": 0,
        "meta_classification_type": "U",
        "meta_norad_cat_id": 30177,
        "meta_element_set_no": 999,
        "meta_rev_at_epoch": 93608,
        "meta_bstar": 0.00098284185,
        "meta_mean_motion_dot": 1.499e-05,
        "meta_mean_motion_ddot": 0,
        "tle_line1": "1 30177U 99025UJ  25357.42324753  .00001499  00000+0  98284-3 0  9991",
        "tle_line2": "2 30177  98.6276 299.8883 0452098 110.2324  11.2152 13.62843543936083"
      },
      "geometry": {
        "type": "Point",
        "coordinates": [
          -54.67524367565068,
          -25.86909402312093
        ]
      }
    },
    {
      "type": "Feature",
      "properties": {
        "norad_id": 30178,
        "name": "FENGYUN 1C DEB",
        "group": "fengyun-1c-debris",
        "lat": 48.09516971248572,
        "lon": -138.82381683807395,
        "alt_km": 897.8266044503007,
        "timestamp": "2025-12-24T18:55:56.342859+00:00",
        "meta_object_name": "FENGYUN 1C DEB",
        "meta_object_id": "1999-025UK",
        "meta_epoch": "2025-12-23T22:05:53.811744",
        "meta_mean_motion": 13.58723036,
        "meta_eccentricity": 0.028111,
        "meta_inclination": 102.2607,
        "meta_ra_of_asc_node": 234.1163,
        "meta_arg_of_pericenter": 101.4539,
        "meta_mean_anomaly": 26.4711,
        "meta_ephemeris_type": 0,
        "meta_classification_type": "U",
        "meta_norad_cat_id": 30178,
        "meta_element_set_no": 999,
        "meta_rev_at_epoch": 93323,
        "meta_bstar": 0.0018709,
        "meta_mean_motion_dot": 1.71e-05,
        "meta_mean_motion_ddot": 0,
        "tle_line1": "1 30178U 99025UK  25357.92076171  .00001710  00000+0  18709-2 0  9994",
        "tle_line2": "2 30178 102.2607 234.1163 0281110 101.4539  26.4711 13.58723036933234"
      },
      "geometry": {
        "type": "Point",
        "coordinates": [
          -138.82381683807395,
          48.09516971248572
        ]
      }
    },
    {
      "type": "Feature",
      "properties": {
        "norad_id": 30181,
        "name": "FENGYUN 1C DEB",
        "group": "fengyun-1c-debris",
        "lat": -16.59134790929535,
        "lon": -100.48613464576951,
        "alt_km": 815.9472097504386,
        "timestamp": "2025-12-24T18:55:56.342869+00:00",
        "meta_object_name": "FENGYUN 1C DEB",
        "meta_object_id": "1999-025UN",
        "meta_epoch": "2025-12-24T04:49:25.211136",
        "meta_mean_motion": 14.29324813,
        "meta_eccentricity": 0.00401714,
        "meta_inclination": 98.8426,
        "meta_ra_of_asc_node": 81.576,
        "meta_arg_of_pericenter": 325.1365,
        "meta_mean_anomaly": 88.7456,
        "meta_ephemeris_type": 0,
        "meta_classification_type": "U",
        "meta_norad_cat_id": 30181,
        "meta_element_set_no": 999,
        "meta_rev_at_epoch": 97675,
        "meta_bstar": 0.0015180192,
        "meta_mean_motion_dot": 3.854e-05,
        "meta_mean_motion_ddot": 0,
        "tle_line1": "1 30181U 99025UN  25358.20098624  .00003854  00000+0  15180-2 0  9998",
        "tle_line2": "2 30181  98.8426  81.5760 0040171 325.1365  88.7456 14.29324813976756"
      },
      "geometry": {
        "type": "Point",
        "coordinates": [
          -100.48613464576951,
          -16.59134790929535
        ]
      }
    }
  ]
}